OBJECT_NAME,OBJECT_ID,EPOCH,MEAN_MOTION,ECCENTRICITY,INCLINATION,RA_OF_ASC_NODE,ARG_OF_PERICENTER,MEAN_ANOMALY,EPHEMERIS_TYPE,CLASSIFICATION_TYPE,NORAD_CAT_ID,ELEMENT_SET_NO,REV_AT_EPOCH,BSTAR,MEAN_MOTION_DOT,MEAN_MOTION_DDOT
STARLINK-4621,2022-105AE,2026-07-16T14:56:00.201120,15.05656273,.00016751,97.2834,75.0898,93.5228,266.6191,0,U,53676,999,21263,.21416405E-4,.253E-5,0
SHERPA-LTC2,2022-107BG,2026-07-15T22:47:59.690688,14.69921414,.0392888,53.2372,98.5529,306.8353,49.7183,0,U,53754,999,20677,.1104E-3,.1905E-4,0
CENTISPACE-1 S3,2022-108A,2026-07-16T14:51:44.854560,14.61284084,.00107864,53.5336,293.5533,67.8881,292.3239,0,U,53757,999,20583,.5856545E-4,.102E-5,0
CENTISPACE-1 S4,2022-108B,2026-07-16T14:09:14.247936,14.61970772,.00101146,53.5310,291.0532,57.2333,302.9616,0,U,53758,999,20586,.36319719E-4,-.7E-7,0
BLUEWALKER-3,2022-111AL,2026-07-16T11:28:59.625696,15.38618077,.00045632,53.2279,256.4208,272.3560,87.6923,0,U,53807,999,21471,.75111051E-4,.2512E-4,0
YUNHAI-1 03,2022-115A,2026-07-16T14:07:50.553984,14.32737414,.00040687,98.5545,195.3642,334.9361,25.1625,0,U,53877,999,19972,.96402083E-4,.219E-5,0
CENTISPACE-1 S5,2022-126A,2026-07-16T14:22:10.081920,14.63058246,.00143133,54.9990,95.2599,127.1240,233.1065,0,U,54020,999,20134,.10238218E-3,.34E-5,0
CENTISPACE-1 S6,2022-126B,2026-07-16T12:55:09.524352,14.62318052,.00161175,54.9993,97.5049,128.2966,231.9480,0,U,54021,999,20129,.89793914E-4,.268E-5,0
OTB-3-GAZELLE,2022-127A,2026-07-16T11:11:58.942752,14.42684255,.00144615,98.3961,188.7274,99.4621,260.8204,0,U,54023,999,19858,.28491781E-4,.52E-6,0
ASO-S,2022-129A,2026-07-16T14:36:13.313088,14.52075252,.00144604,98.2757,202.2688,8.0515,352.0910,0,U,54029,999,19969,.31150465E-4,.81E-6,0
HJ-2E,2022-132A,2026-07-16T14:19:51.516192,15.22705630,.00180546,97.3802,201.4526,265.0704,94.8472,0,U,54035,999,20889,.17190541E-3,.3953E-4,0
COSMOS 2561,2022-137A,2026-07-16T04:12:01.574208,15.52389081,.0008175,96.9168,255.1027,276.4123,83.6200,0,U,54109,999,21084,.12724E-3,.768E-4,0
GONETS-M 23,2022-139A,2026-07-16T15:27:35.101728,12.42891949,.00221846,82.5095,329.9879,155.4377,204.7764,0,U,54150,999,16930,.12646492E-3,.28E-6,0
GONETS-M 24,2022-139B,2026-07-16T14:48:47.445120,12.42892477,.00172601,82.5012,329.0445,165.0663,195.0930,0,U,54151,999,16930,.30766949E-4,.14E-6,0
GONETS-M 25,2022-139C,2026-07-16T14:29:15.504288,12.42890883,.0021197,82.5078,329.7551,164.0975,196.0775,0,U,54152,999,16930,.45845272E-4,.16E-6,0
SKIF-D,2022-139D,2026-07-16T00:52:51.381984,5.00431247,.00074543,89.9489,96.6599,187.1492,172.9144,0,U,54153,999,6555,0,.13E-6,0
MATS,2022-147A,2026-07-16T15:02:53.926656,15.05507214,.00141086,97.6831,199.0994,99.0904,261.1919,0,U,54227,999,20219,.12980867E-3,.1808E-4,0
EOS-6 (OCEANSAT-3),2022-158A,2026-07-16T14:53:11.544000,14.46984769,.00004926,98.3550,295.4250,148.1306,211.9916,0,U,54361,999,19209,.40845768E-4,.105E-5,0
DONGPO 09,2022-167D,2026-07-16T15:33:03.768192,15.36953787,.00027168,97.6919,9.9872,49.3428,310.8051,0,U,54685,999,19997,.186989E-3,.667E-4,0
DONGPO 08,2022-167E,2026-07-16T14:46:14.678688,15.34200689,.00092129,97.6884,6.9905,69.6771,290.5460,0,U,54686,999,19983,.17529331E-3,.5724E-4,0
2022-167F,2022-167F,2026-07-16T14:34:19.555392,16.23322179,.00087269,97.5968,29.6672,256.7660,103.2657,0,U,54687,999,20154,.7273685E-3,.178566E-1,.2572477E-5
DONGPO 10,2022-167H,2026-07-16T14:33:21.411648,15.35018216,.00048538,97.6964,9.0024,23.8208,336.3258,0,U,54689,999,19987,.18110879E-3,.6068E-4,0
JILIN-1 GAOFEN 03D48,2022-167P,2026-07-16T15:42:21.722976,15.35811544,.0006311,97.6900,8.4409,25.4762,334.6791,0,U,54695,999,19991,.18225047E-3,.6266E-4,0
STAR VIBE,2023-001A,2026-07-16T14:41:54.015936,15.43376474,.00053361,97.3152,262.2086,26.9703,333.1822,0,U,55009,999,19676,.18392753E-3,.8124E-4,0
BRO-8,2023-001C,2026-07-16T14:47:55.694976,15.50809570,.00046774,97.3182,263.2593,35.1447,325.0113,0,U,55011,999,19676,.34169685E-3,.19637E-3,0
CONNECTA T1.2,2023-001D,2026-07-16T10:40:50.726784,15.52948535,.00035866,97.3237,268.6969,0.5369,359.5887,0,U,55012,999,19708,.38347656E-3,.2381E-3,0
BIRKELAND,2023-001G,2026-07-16T15:21:28.116864,15.40552332,.00062473,97.3331,265.6928,16.3150,343.8297,0,U,55015,999,19688,.12225661E-3,.4884E-4,0
ION SCV-008,2023-001AU,2026-07-16T08:46:19.212096,15.28887199,.00131829,97.5723,294.1792,268.5091,91.4639,0,U,55051,999,19579,.11253691E-3,.3086E-4,0
ION SCV-007,2023-001BD,2026-07-16T14:07:20.238816,14.77576885,.00111291,97.8992,260.0181,237.2074,122.8066,0,U,55060,999,19059,.34463563E-4,.195E-5,0
HUYGENS,2023-001CN,2026-07-16T15:21:35.472096,15.40551362,.0008248,97.3236,264.8842,347.4316,12.6724,0,U,55093,999,19690,.11500133E-3,.4591E-4,0
