STARLINK-4621           
1 53676U 22105AE  26197.62222455  .00000253  00000+0  21416-4 0  9997
2 53676  97.2834  75.0898 0001675  93.5228 266.6191 15.05656273212632
SHERPA-LTC2             
1 53754U 22107BG  26196.94999642  .00001905  00000+0  11040-3 0  9995
2 53754  53.2372  98.5529 0392888 306.8353  49.7183 14.69921414206777
CENTISPACE-1 S3         
1 53757U 22108A   26197.61926915  .00000102  00000+0  58565-4 0  9999
2 53757  53.5336 293.5533 0010786  67.8881 292.3239 14.61284084205830
CENTISPACE-1 S4         
1 53758U 22108B   26197.58974824 -.00000007  00000+0  36320-4 0  9998
2 53758  53.5310 291.0532 0010114  57.2333 302.9616 14.61970772205861
BLUEWALKER-3            
1 53807U 22111AL  26197.47846789  .00002512  00000+0  75111-4 0  9996
2 53807  53.2279 256.4208 0004563 272.3560  87.6923 15.38618077214719
YUNHAI-1 03             
1 53877U 22115A   26197.58877956  .00000219  00000+0  96402-4 0  9997
2 53877  98.5545 195.3642 0004068 334.9361  25.1625 14.32737414199720
CENTISPACE-1 S5         
1 54020U 22126A   26197.59872780  .00000340  00000+0  10238-3 0  9998
2 54020  54.9990  95.2599 0014313 127.1240 233.1065 14.63058246201346
CENTISPACE-1 S6         
1 54021U 22126B   26197.53830468  .00000268  00000+0  89794-4 0  9993
2 54021  54.9993  97.5049 0016117 128.2966 231.9480 14.62318052201290
OTB-3-GAZELLE           
1 54023U 22127A   26197.46665443  .00000052  00000+0  28492-4 0  9996
2 54023  98.3961 188.7274 0014461  99.4621 260.8204 14.42684255198580
ASO-S                   
1 54029U 22129A   26197.60848742  .00000081  00000+0  31150-4 0  9992
2 54029  98.2757 202.2688 0014460   8.0515 352.0910 14.52075252199699
HJ-2E                   
1 54035U 22132A   26197.59712403  .00003953  00000+0  17191-3 0  9994
2 54035  97.3802 201.4526 0018054 265.0704  94.8472 15.22705630208892
COSMOS 2561             
1 54109U 22137A   26197.17501822  .00007680  00000+0  12724-3 0  9994
2 54109  96.9168 255.1027 0008175 276.4123  83.6200 15.52389081210844
GONETS-M 23             
1 54150U 22139A   26197.64415627  .00000028  00000+0  12646-3 0  9993
2 54150  82.5095 329.9879 0022184 155.4377 204.7764 12.42891949169300
GONETS-M 24             
1 54151U 22139B   26197.61721580  .00000014  00000+0  30767-4 0  9999
2 54151  82.5012 329.0445 0017260 165.0663 195.0930 12.42892477169308
GONETS-M 25             
1 54152U 22139C   26197.60365167  .00000016  00000+0  45845-4 0  9999
2 54152  82.5078 329.7551 0021197 164.0975 196.0775 12.42890883169302
SKIF-D                  
1 54153U 22139D   26197.03670581  .00000013  00000+0  00000+0 0  9992
2 54153  89.9489  96.6599 0007454 187.1492 172.9144  5.00431247 65558
MATS                    
1 54227U 22147A   26197.62701304  .00001808  00000+0  12981-3 0  9994
2 54227  97.6831 199.0994 0014108  99.0904 261.1919 15.05507214202195
EOS-6 (OCEANSAT-3)      
1 54361U 22158A   26197.62027250  .00000105  00000+0  40846-4 0  9997
2 54361  98.3550 295.4250 0000492 148.1306 211.9916 14.46984769192094
DONGPO 09               
1 54685U 22167D   26197.64796028  .00006670  00000+0  18699-3 0  9997
2 54685  97.6919   9.9872 0002716  49.3428 310.8051 15.36953787199979
DONGPO 08               
1 54686U 22167E   26197.61544767  .00005724  00000+0  17529-3 0  9996
2 54686  97.6884   6.9905 0009212  69.6771 290.5460 15.34200689199836
2022-167F               
1 54687U 22167F   26197.60717078  .01785660  25725-5  72737-3 0  9997
2 54687  97.5968  29.6672 0008726 256.7660 103.2657 16.23322179201545
DONGPO 10               
1 54689U 22167H   26197.60649782  .00006068  00000+0  18111-3 0  9991
2 54689  97.6964   9.0024 0004853  23.8208 336.3258 15.35018216199879
JILIN-1 GAOFEN 03D48    
1 54695U 22167P   26197.65441809  .00006266  00000+0  18225-3 0  9999
2 54695  97.6900   8.4409 0006311  25.4762 334.6791 15.35811544199913
STAR VIBE               
1 55009U 23001A   26197.61243074  .00008124  00000+0  18393-3 0  9998
2 55009  97.3152 262.2086 0005336  26.9703 333.1822 15.43376474196763
BRO-8                   
1 55011U 23001C   26197.61661684  .00019637  00000+0  34170-3 0  9994
2 55011  97.3182 263.2593 0004677  35.1447 325.0113 15.50809570196766
CONNECTA T1.2           
1 55012U 23001D   26197.44503156  .00023810  00000+0  38348-3 0  9994
2 55012  97.3237 268.6969 0003586   0.5369 359.5887 15.52948535197084
BIRKELAND               
1 55015U 23001G   26197.63990876  .00004884  00000+0  12226-3 0  9994
2 55015  97.3331 265.6928 0006247  16.3150 343.8297 15.40552332196885
ION SCV-008             
1 55051U 23001AU  26197.36550014  .00003086  00000+0  11254-3 0  9993
2 55051  97.5723 294.1792 0013182 268.5091  91.4639 15.28887199195792
ION SCV-007             
1 55060U 23001BD  26197.58842869  .00000195  00000+0  34464-4 0  9996
2 55060  97.8992 260.0181 0011129 237.2074 122.8066 14.77576885190596
HUYGENS                 
1 55093U 23001CN  26197.63999389  .00004591  00000+0  11500-3 0  9997
2 55093  97.3236 264.8842 0008248 347.4316  12.6724 15.40551362196907
